start=new Date('2022-07-02T00:00:00.000Z').valueOf();
sats=[{"CLASSIFICATION_TYPE":"U","SITE":"AFETR","OBJECT_NAME":"STARLINK-2757","RCS_SIZE":"LARGE","BSTAR":"0.00014649000000","REV_AT_EPOCH":"6326","NORAD_CAT_ID":"48604","PERIOD":"95.592","EPHEMERIS_TYPE":"0","ARG_OF_PERICENTER":"66.0517","INCLINATION":"53.0551","RA_OF_ASC_NODE":"69.8434","MEAN_MOTION_DDOT":"0.0000000000000","COUNTRY_CODE":"US","TLE_LINE2":"2 48604  53.0551  69.8434 0001587  66.0517 294.0638 15.06394496 63269","PERIAPSIS":"546.131","LAUNCH_DATE":"2021-05-15","GP_ID":"207208462","APOAPSIS":"548.329","REF_FRAME":"TEME","CENTER_NAME":"EARTH","DECAY_DATE":null,"MEAN_MOTION_DOT":"0.00001901","FILE":"3506285","MEAN_MOTION":"15.06394496","MEAN_ELEMENT_THEORY":"SGP4","TIME_SYSTEM":"UTC","TLE_LINE1":"1 48604U 21041BD  22182.40060947  .00001901  00000-0  14649-3 0  9993","EPOCH":"2022-07-01T09:36:52.658208","SEMIMAJOR_AXIS":"6925.365","ECCENTRICITY":"0.00015870","OBJECT_ID":"2021-041BD","MEAN_ANOMALY":"294.0638","ELEMENT_SET_NO":"999","OBJECT_TYPE":"PAYLOAD"},{"ARG_OF_PERICENTER":"82.9393","EPHEMERIS_TYPE":"0","NORAD_CAT_ID":"48638","PERIOD":"95.592","REV_AT_EPOCH":"6070","BSTAR":"0.00016477000000","SITE":"AFETR","OBJECT_NAME":"STARLINK-2758","RCS_SIZE":"LARGE","CLASSIFICATION_TYPE":"U","MEAN_MOTION_DOT":"0.00002174","CENTER_NAME":"EARTH","DECAY_DATE":null,"REF_FRAME":"TEME","APOAPSIS":"548.332","GP_ID":"207209968","LAUNCH_DATE":"2021-05-26","PERIAPSIS":"546.077","COUNTRY_CODE":"US","TLE_LINE2":"2 48638  53.0555  45.0607 0001628  82.9393 277.1781 15.06402819 60709","MEAN_MOTION_DDOT":"0.0000000000000","RA_OF_ASC_NODE":"45.0607","INCLINATION":"53.0555","TLE_LINE1":"1 48638U 21044A   22182.35221051  .00002174  00000-0  16477-3 0  9996","TIME_SYSTEM":"UTC","MEAN_ELEMENT_THEORY":"SGP4","MEAN_MOTION":"15.06402819","FILE":"3506285","OBJECT_TYPE":"PAYLOAD","ELEMENT_SET_NO":"999","MEAN_ANOMALY":"277.1781","OBJECT_ID":"2021-044A","SEMIMAJOR_AXIS":"6925.340","ECCENTRICITY":"0.00016280","EPOCH":"2022-07-01T08:27:10.988064"},{"REV_AT_EPOCH":"6071","BSTAR":"0.00005922900000","PERIOD":"95.593","NORAD_CAT_ID":"48639","EPHEMERIS_TYPE":"0","CLASSIFICATION_TYPE":"U","OBJECT_NAME":"STARLINK-2739","SITE":"AFETR","RCS_SIZE":"LARGE","ARG_OF_PERICENTER":"72.3514","TLE_LINE2":"2 48639  53.0560  44.8315 0001406  72.3514 287.7628 15.06391702 60717","COUNTRY_CODE":"US","PERIAPSIS":"546.265","LAUNCH_DATE":"2021-05-26","INCLINATION":"53.0560","MEAN_MOTION_DDOT":"0.0000000000000","RA_OF_ASC_NODE":"44.8315","MEAN_MOTION_DOT":"0.00000601","GP_ID":"207208717","APOAPSIS":"548.213","REF_FRAME":"TEME","DECAY_DATE":null,"CENTER_NAME":"EARTH","MEAN_MOTION":"15.06391702","FILE":"3506285","TIME_SYSTEM":"UTC","TLE_LINE1":"1 48639U 21044B   22182.40381444  .00000601  00000-0  59229-4 0  9992","MEAN_ELEMENT_THEORY":"SGP4","MEAN_ANOMALY":"287.7628","ELEMENT_SET_NO":"999","EPOCH":"2022-07-01T09:41:29.567616","SEMIMAJOR_AXIS":"6925.374","ECCENTRICITY":"0.00014060","OBJECT_ID":"2021-044B","OBJECT_TYPE":"PAYLOAD"},{"OBJECT_TYPE":"PAYLOAD","EPOCH":"2022-07-01T07:56:44.944800","ECCENTRICITY":"0.00015700","SEMIMAJOR_AXIS":"6925.379","OBJECT_ID":"2021-044C","MEAN_ANOMALY":"294.9773","ELEMENT_SET_NO":"999","MEAN_ELEMENT_THEORY":"SGP4","TIME_SYSTEM":"UTC","TLE_LINE1":"1 48640U 21044C   22182.33107575  .00000437  00000-0  48276-4 0  9994","FILE":"3506285","MEAN_MOTION":"15.06389943","GP_ID":"207208967","APOAPSIS":"548.332","REF_FRAME":"TEME","CENTER_NAME":"EARTH","DECAY_DATE":null,"MEAN_MOTION_DOT":"0.00000437","INCLINATION":"53.0559","MEAN_MOTION_DDOT":"0.0000000000000","RA_OF_ASC_NODE":"45.4300","COUNTRY_CODE":"US","TLE_LINE2":"2 48640  53.0559  45.4300 0001570  65.1379 294.9773 15.06389943 60691","PERIAPSIS":"546.157","LAUNCH_DATE":"2021-05-26","ARG_OF_PERICENTER":"65.1379","CLASSIFICATION_TYPE":"U","SITE":"AFETR","OBJECT_NAME":"STARLINK-2736","RCS_SIZE":"LARGE","BSTAR":"0.00004827600000","REV_AT_EPOCH":"6069","PERIOD":"95.593","NORAD_CAT_ID":"48640","EPHEMERIS_TYPE":"0"},{"EPOCH":"2022-07-01T19:23:22.541856","SEMIMAJOR_AXIS":"6925.346","ECCENTRICITY":"0.00017830","OBJECT_ID":"2021-044D","MEAN_ANOMALY":"282.8663","ELEMENT_SET_NO":"999","OBJECT_TYPE":"PAYLOAD","FILE":"3506310","MEAN_MOTION":"15.06400868","MEAN_ELEMENT_THEORY":"SGP4","TIME_SYSTEM":"UTC","TLE_LINE1":"1 48641U 21044D   22182.80789979  .00000462  00000-0  49916-4 0  9991","INCLINATION":"53.0555","MEAN_MOTION_DDOT":"0.0000000000000","RA_OF_ASC_NODE":"48.0131","TLE_LINE2":"2 48641  53.0555  48.0131 0001783  77.2525 282.8663 15.06400868 61608","COUNTRY_CODE":"US","PERIAPSIS":"545.976","LAUNCH_DATE":"2021-05-26","GP_ID":"207212947","REF_FRAME":"TEME","APOAPSIS":"548.446","DECAY_DATE":null,"CENTER_NAME":"EARTH","MEAN_MOTION_DOT":"0.00000462","CLASSIFICATION_TYPE":"U","SITE":"AFETR","RCS_SIZE":"LARGE","OBJECT_NAME":"STARLINK-2754","REV_AT_EPOCH":"6160","BSTAR":"0.00004991600000","NORAD_CAT_ID":"48641","PERIOD":"95.592","EPHEMERIS_TYPE":"0","ARG_OF_PERICENTER":"77.2525"},{"INCLINATION":"53.0542","RA_OF_ASC_NODE":"50.0297","MEAN_MOTION_DDOT":"0.0000000000000","PERIAPSIS":"546.126","LAUNCH_DATE":"2021-05-26","COUNTRY_CODE":"US","TLE_LINE2":"2 48642  53.0542  50.0297 0001617  80.7550 279.3621 15.06389361 60635","APOAPSIS":"548.366","REF_FRAME":"TEME","DECAY_DATE":null,"CENTER_NAME":"EARTH","GP_ID":"207209469","MEAN_MOTION_DOT":"0.00002140","CLASSIFICATION_TYPE":"U","OBJECT_NAME":"STARLINK-2646","SITE":"AFETR","RCS_SIZE":"LARGE","PERIOD":"95.593","NORAD_CAT_ID":"48642","EPHEMERIS_TYPE":"0","BSTAR":"0.00016257000000","REV_AT_EPOCH":"6063","ARG_OF_PERICENTER":"80.7550","SEMIMAJOR_AXIS":"6925.381","ECCENTRICITY":"0.00016170","OBJECT_ID":"2021-044E","EPOCH":"2022-07-01T08:34:29.437824","MEAN_ANOMALY":"279.3621","ELEMENT_SET_NO":"999","OBJECT_TYPE":"PAYLOAD","FILE":"3506285","MEAN_MOTION":"15.06389361","MEAN_ELEMENT_THEORY":"SGP4","TLE_LINE1":"1 48642U 21044E   22182.35728516  .00002140  00000-0  16257-3 0  9998","TIME_SYSTEM":"UTC"},{"MEAN_MOTION_DOT":"0.00002355","GP_ID":"207208217","REF_FRAME":"TEME","APOAPSIS":"548.389","CENTER_NAME":"EARTH","DECAY_DATE":null,"TLE_LINE2":"2 48643  53.0569  50.1066 0001696  83.1581 276.9601 15.06399547 60636","COUNTRY_CODE":"US","PERIAPSIS":"546.040","LAUNCH_DATE":"2021-05-26","INCLINATION":"53.0569","RA_OF_ASC_NODE":"50.1066","MEAN_MOTION_DDOT":"0.0000000000000","ARG_OF_PERICENTER":"83.1581","REV_AT_EPOCH":"6063","BSTAR":"0.00017694000000","NORAD_CAT_ID":"48643","PERIOD":"95.592","EPHEMERIS_TYPE":"0","CLASSIFICATION_TYPE":"U","SITE":"AFETR","RCS_SIZE":"LARGE","OBJECT_NAME":"STARLINK-2704","OBJECT_TYPE":"PAYLOAD","MEAN_ANOMALY":"276.9601","ELEMENT_SET_NO":"999","EPOCH":"2022-07-01T08:07:56.497440","SEMIMAJOR_AXIS":"6925.350","ECCENTRICITY":"0.00016960","OBJECT_ID":"2021-044F","TIME_SYSTEM":"UTC","TLE_LINE1":"1 48643U 21044F   22182.33884835  .00002355  00000-0  17694-3 0  9998","MEAN_ELEMENT_THEORY":"SGP4","MEAN_MOTION":"15.06399547","FILE":"3506285"},{"FILE":"3506285","MEAN_MOTION":"15.06392501","MEAN_ELEMENT_THEORY":"SGP4","TIME_SYSTEM":"UTC","TLE_LINE1":"1 48644U 21044G   22182.33611109  .00002383  00000-0  17886-3 0  9995","EPOCH":"2022-07-01T08:03:59.998176","OBJECT_ID":"2021-044G","ECCENTRICITY":"0.00014730","SEMIMAJOR_AXIS":"6925.372","ELEMENT_SET_NO":"999","MEAN_ANOMALY":"284.0009","OBJECT_TYPE":"PAYLOAD","SITE":"AFETR","RCS_SIZE":"LARGE","OBJECT_NAME":"STARLINK-2695","CLASSIFICATION_TYPE":"U","BSTAR":"0.00017886000000","REV_AT_EPOCH":"6063","EPHEMERIS_TYPE":"0","PERIOD":"95.593","NORAD_CAT_ID":"48644","ARG_OF_PERICENTER":"76.1143","MEAN_MOTION_DDOT":"0.0000000000000","RA_OF_ASC_NODE":"50.1351","INCLINATION":"53.0554","TLE_LINE2":"2 48644  53.0554  50.1351 0001473  76.1143 284.0009 15.06392501 60632","COUNTRY_CODE":"US","LAUNCH_DATE":"2021-05-26","PERIAPSIS":"546.216","GP_ID":"207208467","CENTER_NAME":"EARTH","DECAY_DATE":null,"REF_FRAME":"TEME","APOAPSIS":"548.257","MEAN_MOTION_DOT":"0.00002383"},{"FILE":"3506285","MEAN_MOTION":"15.06393511","MEAN_ELEMENT_THEORY":"SGP4","TLE_LINE1":"1 48645U 21044H   22182.33242045  .00002722  00000-0  20158-3 0  9998","TIME_SYSTEM":"UTC","OBJECT_ID":"2021-044H","SEMIMAJOR_AXIS":"6925.368","ECCENTRICITY":"0.00015410","EPOCH":"2022-07-01T07:58:41.126880","ELEMENT_SET_NO":"999","MEAN_ANOMALY":"287.0820","OBJECT_TYPE":"PAYLOAD","SITE":"AFETR","RCS_SIZE":"LARGE","OBJECT_NAME":"STARLINK-2733","CLASSIFICATION_TYPE":"U","EPHEMERIS_TYPE":"0","NORAD_CAT_ID":"48645","PERIOD":"95.593","REV_AT_EPOCH":"6063","BSTAR":"0.00020158000000","ARG_OF_PERICENTER":"73.0337","MEAN_MOTION_DDOT":"0.0000000000000","RA_OF_ASC_NODE":"50.1525","INCLINATION":"53.0565","LAUNCH_DATE":"2021-05-26","PERIAPSIS":"546.166","TLE_LINE2":"2 48645  53.0565  50.1525 0001541  73.0337 287.0820 15.06393511 60631","COUNTRY_CODE":"US","DECAY_DATE":null,"CENTER_NAME":"EARTH","APOAPSIS":"548.301","REF_FRAME":"TEME","GP_ID":"207209718","MEAN_MOTION_DOT":"0.00002722"},{"OBJECT_TYPE":"PAYLOAD","EPOCH":"2022-07-01T20:37:41.789280","ECCENTRICITY":"0.00016220","SEMIMAJOR_AXIS":"6925.370","OBJECT_ID":"2021-044J","MEAN_ANOMALY":"266.8781","ELEMENT_SET_NO":"999","MEAN_ELEMENT_THEORY":"SGP4","TIME_SYSTEM":"UTC","TLE_LINE1":"1 48646U 21044J   22182.85951145  .00000253  00000-0  35858-4 0  9995","FILE":"3506314","MEAN_MOTION":"15.06392930","GP_ID":"207213260","REF_FRAME":"TEME","APOAPSIS":"548.359","CENTER_NAME":"EARTH","DECAY_DATE":null,"MEAN_MOTION_DOT":"0.00000253","INCLINATION":"53.0568","RA_OF_ASC_NODE":"47.7707","MEAN_MOTION_DDOT":"0.0000000000000","TLE_LINE2":"2 48646  53.0568  47.7707 0001622  93.2394 266.8781 15.06392930 61610","COUNTRY_CODE":"US","PERIAPSIS":"546.112","LAUNCH_DATE":"2021-05-26","ARG_OF_PERICENTER":"93.2394","CLASSIFICATION_TYPE":"U","OBJECT_NAME":"STARLINK-2732","SITE":"AFETR","RCS_SIZE":"LARGE","REV_AT_EPOCH":"6161","BSTAR":"0.00003585800000","PERIOD":"95.593","NORAD_CAT_ID":"48646","EPHEMERIS_TYPE":"0"}];
